[{"OBJECT_NAME":"STARLINK-3646","OBJECT_ID":"2022-017T","EPOCH":"2026-03-09T23:18:49.361760","MEAN_MOTION":15.08838658,"ECCENTRICITY":0.00013794,"INCLINATION":53.219,"RA_OF_ASC_NODE":337.8279,"ARG_OF_PERICENTER":111.4117,"MEAN_ANOMALY":248.7022,"EPHEMERIS_TYPE":0,"CLASSIFICATION_TYPE":"U","NORAD_CAT_ID":51785,"ELEMENT_SET_NO":999,"REV_AT_EPOCH":22246,"BSTAR":-1.8176299e-5,"MEAN_MOTION_DOT":-5.77e-6,"MEAN_MOTION_DDOT":0},{"OBJECT_NAME":"OBJECT H","OBJECT_ID":"2025-292H","EPOCH":"2026-03-09T22:24:53.558208","MEAN_MOTION":15.06373042,"ECCENTRICITY":0.00142604,"INCLINATION":97.6442,"RA_OF_ASC_NODE":145.7846,"ARG_OF_PERICENTER":348.9217,"MEAN_ANOMALY":11.1694,"EPHEMERIS_TYPE":0,"CLASSIFICATION_TYPE":"U","NORAD_CAT_ID":67000,"ELEMENT_SET_NO":999,"REV_AT_EPOCH":1338,"BSTAR":0.0005462937,"MEAN_MOTION_DOT":8.001e-5,"MEAN_MOTION_DDOT":0}]
